[{"OBJECT_NAME":"OBJECT H","OBJECT_ID":"2025-055H","EPOCH":"2026-03-09T23:29:50.051328","MEAN_MOTION":15.30330066,"ECCENTRICITY":0.00075967,"INCLINATION":97.636,"RA_OF_ASC_NODE":211.9572,"ARG_OF_PERICENTER":140.4354,"MEAN_ANOMALY":219.7441,"EPHEMERIS_TYPE":0,"CLASSIFICATION_TYPE":"U","NORAD_CAT_ID":63298,"ELEMENT_SET_NO":999,"REV_AT_EPOCH":5423,"BSTAR":0.0015582864,"MEAN_MOTION_DOT":0.00045901,"MEAN_MOTION_DDOT":0},{"OBJECT_NAME":"STARLINK-34333","OBJECT_ID":"2025-120J","EPOCH":"2026-03-09T12:24:30.929760","MEAN_MOTION":15.30191213,"ECCENTRICITY":0.00015241,"INCLINATION":53.1602,"RA_OF_ASC_NODE":117.2177,"ARG_OF_PERICENTER":66.8946,"MEAN_ANOMALY":293.2215,"EPHEMERIS_TYPE":0,"CLASSIFICATION_TYPE":"U","NORAD_CAT_ID":64264,"ELEMENT_SET_NO":999,"REV_AT_EPOCH":4384,"BSTAR":0.00097034954,"MEAN_MOTION_DOT":0.00028482,"MEAN_MOTION_DDOT":0}]
